First least square run :: 
16935.8035058  0.0327895172299  6.69069874094e-13  0.66  93.0974757703  
Convergence OK -> poursuite du programme
 
 Sommes des résidus par camera : 
              camera               sigma                   s                   n                 Sum        Sum expected                  s'
              FRCE03       1.61290042578       0.11882210535                  34       61.6690902251       28.8592377422       1.72441817708
              FRCE07       1.57749786859      0.498209014422                  38       31.4283855452       8.72400389135       2.66877181368
 Sum Expected Total :: 37.5832416335
 
 Sommes des résidus par camera 2 : 
              camera               sigma                   s                   n                 Sum        Sum expected                  s'
              FRCE03       1.61290042578       1.72850708479                  34       1.85349443454       1.82399761301       0.30064203429
              FRCE07       1.57749786859       2.71487664831                  38       1.29103790083       1.32584709461                   0
 Sum Expected Total :: 3.14984470762
 
Parametre  de la meilleure solution par moindre carré :: 
 V  = 16946.9418293 m/s
 A  = 0.0340312194364 m²/kg
 B  = 6.96986225201e-13 m²/J
 mu = 0.66
 
S_min : 3.14453233537
 
 
 Estimation Parametre par Moyenne pondérée (si cette estimation est très différente de la précédente, cela peut être le signe d'un problème) :: 
 V  = 16946.9928413 m/s
 A  = 0.0311576175754 m²/kg
 B  = 2.5424852773e-09 m²/J
 
 Parametre Maria :: 
 gamma = 43.8631927651°
 Alpha = 226.806433832
 Beta  = 0.000999949994887
 
Final Mass : 99.7063291194 %
 
         rho(Kg/m³)               Re(m)              Me(Kg)               Rf(m)              Mf(Kg)
                1500      0.014692391524     0.0199277078307     0.0146779949968     0.0198691859557
                2500    0.00881543491443    0.00717397481906     0.0088067969981    0.00715290694404
                3500    0.00629673922459    0.00366019123422    0.00629056928436    0.00364944231839
                4500    0.00489746384135    0.00221418975897    0.00489266499895    0.00220768732841
                5500    0.00400701587019    0.00148222620229    0.00400308954459    0.00147787333554
                6500    0.00339055189016    0.00106123887856    0.00338722961466      0.001058122329
 
Matrix of Covariance : 
    |                   Ve |                    A |                    B | 
Ve  |        19274.5474902 |        1.89777452247 |   -4.19147762265e-09 | 
A   |        1.89777452247 |    0.000295501020409 |   -1.24725644833e-11 | 
B   |   -4.19147762265e-09 |   -1.24725644833e-11 |    8.95586008749e-18 | 
 
 
 Time shift :: 
FRCE03 : -0.0016064350331 s
FRCE07 : 0.0016064350331 s
 
 
 Transposed Jacobian Matrix :: 
       |             Ve(m/s) |                    A |                    B | 
dx1(m) |     -0.185173797687 |   -1.87111399486e-05 |    1.15680245389e-15 | 
dx2(m) |    0.00639361543595 |    3.27464433145e-07 |   -6.64380031876e-18 | 
dx3(m) |     0.0427299970114 |    1.63392432469e-05 |    3.62825841808e-16 | 
dx4(m) |    -0.0344121769552 |    5.96229586067e-07 |    2.13002960037e-16 | 
 
 Propagation des Variances :: 
        |              Ve(m/s) |                    A |                    B | 
Ve(m/s) |        178.821469712 |      0.0319265114184 |   -4.74169227917e-13 | 
A       |      0.0319265114184 |    6.34894945848e-06 |   -5.52760653602e-17 | 
B       |   -4.74169227917e-13 |   -5.52760653602e-17 |     2.6078486351e-27 | 
 
 Variances Totales :: 
        |              Ve(m/s) |                    A |                    B | 
Ve(m/s) |        19453.3689599 |        1.92970103389 |   -4.19195179188e-09 | 
A       |        1.92970103389 |    0.000301849969867 |   -1.24726197594e-11 | 
B       |   -4.19195179188e-09 |   -1.24726197594e-11 |     8.9558600901e-18 | 
 
sigma Ve : 139.475334593 m/s
sigma A  : 0.0173738300287 m^2/Kg
sigma B  : 2.99263430611e-09 m^2/J
 
sigma Me (relatif) : 153.157867833 %
sigma Mf (relatif) : 1272.03732255 %
 
A/B : 48826.2439141 MJ/Kg
sigma A/B : 209644162.718 MJ/Kg
 
    Remarque : A/B decrit la solidité du bolide. Il doit être entre 50 et 8000 MJ/Kg 
 
 
 
 
------------------------------------------------------------------------ 
------------------------------------------------------------------------ 
------------------------------------------------------------------------ 
 
 
  ORBITE :: 
Perifocal Distance              :: 0.975508929253 AU
Eccentricity                    :: 0.734834339162
Inclination                     :: 14.6196280905 °
Longitude of the ascending node :: 281.615644339 °
Argument of periapsis           :: 168.910247935 °
Mean anomaly at epoch           :: 0.226868617486 °
Epoch                           :: 2019-12-27T04:36:09.003
Semi-major axe                  :: 3.678865982 AU
 
Moon near encounter             :: 336016.218311km   ( 193.40176028 moon radius )
Tisserand_J                     :: 2.51798326393
Tisserand_S                     :: 3.6960120427
Tisserand_U                     :: 6.31972816805
Tisserand_N                     :: 9.27743308398
 
 
  Transposed Jacobian Matrix  :: 
        |        Per dist(AU) |                  ecc |                  Inc |                 Long |                  Arg |              Mean an |                Epoch |                    a | 
dx1(km) |   -0.00134299074587 |     0.00672937569587 |       -0.24456185234 |   -5.92933970645e-05 |      -0.890746900127 |      0.0789107632869 |        789.914017439 |      0.0905967231684 |  
dx2(km) |   -0.00101959001913 |     -0.0160528240204 |       0.300345740963 |    8.44426338016e-05 |      -0.782837302227 |       0.116873395744 |        684.264796495 |      -0.213626704706 |  
dx3(km) |    0.00129437844992 |    -0.00590354670586 |       0.250791967307 |    3.91676991745e-05 |       0.943414758347 |     -0.0909130481786 |        176.083286524 |     -0.0753459933146 |  
dx4(km) |   0.000982635854756 |      0.0170006573575 |      -0.293473566239 |   -0.000103427338996 |        0.79410862948 |      -0.100065880132 |        293.111095905 |       0.255982007889 |  
V(km/s) |   -0.00190772882526 |      0.0336508554577 |       0.491498426998 |    -0.00230132374323 |       -1.21777291906 |      0.0817236466276 |        6103.72273922 |        0.45908950146 |  
 
 Variances :: 
             |        Per dist(AU) |                  ecc |                  Inc |                 Long |                  Arg |              Mean an |             Epoch(s) |                    a | 
Per dist(AU) |   1.28940820924e-07 |   -1.25281921997e-06 |   -1.33562437609e-05 |    8.57872654298e-08 |    8.72971997574e-05 |   -7.37715907816e-06 |      -0.232858039846 |   -1.67804988579e-05 |  
ecc          |  -1.25281921997e-06 |    2.24044220706e-05 |    0.000312991923654 |   -1.50889526655e-06 |   -0.000798149321157 |    5.29970653001e-05 |        4.00065778754 |     0.00030580256883 |  
Inc          |  -1.33562437609e-05 |    0.000312991923654 |     0.00529959421162 |   -2.19190358124e-05 |    -0.00814671714022 |    0.000434108571766 |        57.7619602513 |     0.00429290676925 |  
Long         |   8.57872654298e-08 |   -1.50889526655e-06 |   -2.19190358124e-05 |    1.03044547359e-07 |    5.47804240882e-05 |   -3.68196148156e-06 |      -0.273343209759 |   -2.05846551657e-05 |  
Arg          |   8.72971997574e-05 |   -0.000798149321157 |    -0.00814671714022 |    5.47804240882e-05 |      0.0593548077567 |     -0.0050866563505 |       -149.071590174 |     -0.0106616834248 |  
Mean an      |  -7.37715907816e-06 |    5.29970653001e-05 |    0.000434108571766 |   -3.68196148156e-06 |     -0.0050866563505 |    0.000456318122639 |        10.1596630629 |    0.000699362435984 |  
Epoch(s)     |     -0.232858039846 |        4.00065778754 |        57.7619602513 |      -0.273343209759 |       -149.071590174 |        10.1596630629 |         726716.68337 |        54.5614208869 |  
a            |  -1.67804988579e-05 |     0.00030580256883 |     0.00429290676925 |   -2.05846551657e-05 |     -0.0106616834248 |    0.000699362435984 |        54.5614208869 |     0.00417588610023 |  
 
     Ecarts types :: 
Per dist(AU) :   0.000359083306385 
ecc          :     0.0047333309699 
Inc          :     0.0727983118734 
Long         :   0.000321005525434 
Arg          :      0.243628421488 
Mean an      :     0.0213616039341 
Epoch(s)     :        852.47679345 
a            :     0.0646210964023 
